STARLINK-31565          
1 59323U 24057D   26068.38287222 -.00006338  00000+0 -22085-3 0  9997
2 59323  43.0003 196.4627 0001460 279.4542  80.6144 15.27598609109705
HERMES-3                
1 63835U 25052BR  26068.93751242  .00020316  00000+0  69958-3 0  9995
2 63835  97.3987 324.6131 0007993 112.9583 247.2502 15.30039785 54863
